STARLINK-37739          
1 69233U 26115Y   26182.32005982  .00031458  00000+0  86916-3 0  9999
2 69233  97.2856 199.6269 0002721 117.7683 242.3838 15.36987375  6852
STARLINK-37755          
1 69234U 26115Z   26185.83038603  .00057973  00000+0  10585-2 0  9993
2 69234  97.2824 203.7279 0001448  88.6201 271.5216 15.49223819  7432
STARLINK-37665          
1 69238U 26117A   26186.25005787  .00045926  00000+0  14024-2 0  9990
2 69238  53.1604 154.9336 0000784  61.5384  38.0897 15.33477802  5983
STARLINK-37558          
1 69239U 26117B   26186.25005787 -.02744045  00000+0 -88138-1 0  9999
2 69239  53.1601 154.6129 0002088  61.8544 197.1398 15.35467067  5985
STARLINK-37680          
1 69240U 26117C   26186.25005787  .00048189  00000+0  14701-2 0  9999
2 69240  53.1598 154.6445 0001767  61.3394 181.0968 15.33485741  5841
STARLINK-37742          
1 69241U 26117D   26186.25005787  .00053363  00000+0  16250-2 0  9991
2 69241  53.1599 154.6344 0001793  83.1183 164.4679 15.33496056  6013
STARLINK-37718          
1 69242U 26117E   26186.25005787  .00046817  00000+0  14284-2 0  9993
2 69242  53.1597 154.6701 0001362  93.3065 136.3977 15.33495278  6073
STARLINK-37735          
1 69243U 26117F   26186.25005787 -.00466591  00000+0 -14938-1 0  9996
2 69243  53.1600 154.8221 0001097  68.1671  86.7084 15.33838904  5989
STARLINK-37757          
1 69244U 26117G   26186.25005787  .00054931  00000+0  16725-2 0  9993
2 69244  53.1597 154.7744 0001445  89.6304  88.0884 15.33488459  5981
STARLINK-37767          
1 69245U 26117H   26186.25005787  .00038237  00000+0  11694-2 0  9995
2 69245  53.1598 154.6334 0001221  95.7543 150.8899 15.33512140  6072
STARLINK-35759          
1 69246U 26117J   26186.25005787  .00037068  00000+0  11345-2 0  9990
2 69246  53.1598 154.7684 0001032  87.2663  91.6067 15.33501717  6023
STARLINK-37238          
1 69247U 26117K   26185.65515780  .00112906  00000+0  20052-2 0  9993
2 69247  53.1610 157.8142 0002470  90.1388 269.9905 15.49359839  5715
STARLINK-37412          
1 69248U 26117L   26186.25005787  .00035413  00000+0  10837-2 0  9999
2 69248  53.1598 154.6768 0001771  68.1176 155.0140 15.33527242  6088
STARLINK-37398          
1 69249U 26117M   26186.25005787 -.02544650  00000+0 -61121-1 0  9993
2 69249  53.1597 154.8265 0001385  68.6394  83.5156 15.44532165  6084
STARLINK-37499          
1 69250U 26117N   26186.25005787 -.00752000  00000+0 -20310-1 0  9998
2 69250  53.1602 154.7332 0001722  76.4326 120.4293 15.39775121  6082
STARLINK-37489          
1 69251U 26117P   26185.50396443 -.00108538  00000+0 -19847-2 0  9993
2 69251  53.1601 158.2881 0000656  59.6062 300.5012 15.49107660  5699
STARLINK-37434          
1 69252U 26117Q   26185.93240440  .00096085  00000+0  17085-2 0  9999
2 69252  53.1606 156.7038 0001514 313.7989  46.2895 15.49408314  5758
STARLINK-37368          
1 69253U 26117R   26186.25005787 -.01999141  00000+0 -65209-1 0  9997
2 69253  53.1604 154.2023 0001094  76.4475  20.2988 15.35030187  6097
STARLINK-37517          
1 69254U 26117S   26186.25005787  .00037778  00000+0  11552-2 0  9997
2 69254  53.1604 154.4614 0001647  85.4639 241.8835 15.33520314  6098
STARLINK-37378          
1 69255U 26117T   26186.25005787  .00037924  00000+0  11603-2 0  9998
2 69255  53.1609 154.3781 0001623  70.5968 298.1391 15.33502648  6094
STARLINK-37396          
1 69256U 26117U   26186.25005787  .00035479  00000+0  10866-2 0  9992
2 69256  53.1608 154.4281 0001554  80.4670 261.9086 15.33502109  6094
STARLINK-37508          
1 69257U 26117V   26186.25005787  .00038761  00000+0  11180-2 0  9990
2 69257  53.1603 154.5182 0001646  83.8844 214.3254 15.35354306  6098
STARLINK-37276          
1 69258U 26117W   26186.25005787  .00038470  00000+0  11105-2 0  9995
2 69258  53.1600 155.2602 0001541  80.8635 206.4613 15.35331499  6055
STARLINK-37518          
1 69259U 26117X   26186.25005787  .00053430  00000+0  15337-2 0  9990
2 69259  53.1602 155.2216 0000932 100.5840 206.6479 15.35360770  6045
STARLINK-37478          
1 69260U 26117Y   26186.28432670  .00081355  00000+0  14559-2 0  9992
2 69260  53.1595 155.3428 0001077 106.6080 253.5047 15.49302899  5806
STARLINK-37506          
1 69261U 26117Z   26186.25005787 -.02571098  00000+0 -66804-1 0  9996
2 69261  53.1609 155.1338 0000940  89.2596 264.1286 15.42273663  6046
STARLINK-37503          
1 69262U 26117AA  26186.25005787  .00058060  00000+0  16680-2 0  9990
2 69262  53.1613 155.0678 0001638  92.0349 289.9610 15.35297093  6042
STARLINK-37502          
1 69263U 26117AB  26183.65802587  .00065022  00000+0  11712-2 0  9992
2 69263  53.1599 167.3776 0004530  42.0068 318.1288 15.49209951  5404
STARLINK-37486          
1 69264U 26117AC  26186.25005787  .00041319  00000+0  11924-2 0  9997
2 69264  53.1611 155.0457 0001250 102.4981 290.3025 15.35309488  6043
STARLINK-37435          
1 69265U 26117AD  26186.25005787  .00054558  00000+0  16624-2 0  9999
2 69265  53.1603 154.7878 0000702 103.3641  55.9602 15.33468334  6042
