OBJECT_NAME,OBJECT_ID,EPOCH,MEAN_MOTION,ECCENTRICITY,INCLINATION,RA_OF_ASC_NODE,ARG_OF_PERICENTER,MEAN_ANOMALY,EPHEMERIS_TYPE,CLASSIFICATION_TYPE,NORAD_CAT_ID,ELEMENT_SET_NO,REV_AT_EPOCH,BSTAR,MEAN_MOTION_DOT,MEAN_MOTION_DDOT
STARLINK-37739,2026-115Y,2026-07-01T07:40:53.168448,15.36987375,.00027219,97.2856,199.6269,117.7683,242.3838,0,U,69233,999,685,.86915564E-3,.31458E-3,0
STARLINK-37755,2026-115Z,2026-07-04T19:55:45.352992,15.49223819,.00014482,97.2824,203.7279,88.6201,271.5216,0,U,69234,999,743,.10584832E-2,.57973E-3,0
STARLINK-37665,2026-117A,2026-07-05T06:00:04.999968,15.33477802,.00007846,53.1604,154.9336,61.5384,38.0897,0,U,69238,999,598,.1402353E-2,.45926E-3,0
STARLINK-37558,2026-117B,2026-07-05T06:00:04.999968,15.35467067,.00020883,53.1601,154.6129,61.8544,197.1398,0,U,69239,999,598,-.88138171E-1,-.2744045E-1,0
STARLINK-37680,2026-117C,2026-07-05T06:00:04.999968,15.33485741,.0001767,53.1598,154.6445,61.3394,181.0968,0,U,69240,999,584,.14700612E-2,.48189E-3,0
STARLINK-37742,2026-117D,2026-07-05T06:00:04.999968,15.33496056,.00017934,53.1599,154.6344,83.1183,164.4679,0,U,69241,999,601,.16250378E-2,.53363E-3,0
STARLINK-37718,2026-117E,2026-07-05T06:00:04.999968,15.33495278,.00013628,53.1597,154.6701,93.3065,136.3977,0,U,69242,999,607,.14283802E-2,.46817E-3,0
STARLINK-37735,2026-117F,2026-07-05T06:00:04.999968,15.33838904,.00010971,53.1600,154.8221,68.1671,86.7084,0,U,69243,999,598,-.14937666E-1,-.466591E-2,0
STARLINK-37757,2026-117G,2026-07-05T06:00:04.999968,15.33488459,.00014452,53.1597,154.7744,89.6304,88.0884,0,U,69244,999,598,.16725138E-2,.54931E-3,0
STARLINK-37767,2026-117H,2026-07-05T06:00:04.999968,15.33512140,.00012212,53.1598,154.6334,95.7543,150.8899,0,U,69245,999,607,.1169366E-2,.38237E-3,0
STARLINK-35759,2026-117J,2026-07-05T06:00:04.999968,15.33501717,.0001032,53.1598,154.7684,87.2663,91.6067,0,U,69246,999,602,.11345192E-2,.37068E-3,0
STARLINK-37238,2026-117K,2026-07-04T15:43:25.633920,15.49359839,.00024702,53.1610,157.8142,90.1388,269.9905,0,U,69247,999,571,.200523E-2,.112906E-2,0
STARLINK-37412,2026-117L,2026-07-05T06:00:04.999968,15.33527242,.00017713,53.1598,154.6768,68.1176,155.0140,0,U,69248,999,608,.10837227E-2,.35413E-3,0
STARLINK-37398,2026-117M,2026-07-05T06:00:04.999968,15.44532165,.00013851,53.1597,154.8265,68.6394,83.5156,0,U,69249,999,608,-.61120666E-1,-.254465E-1,0
STARLINK-37499,2026-117N,2026-07-05T06:00:04.999968,15.39775121,.0001722,53.1602,154.7332,76.4326,120.4293,0,U,69250,999,608,-.20310272E-1,-.752E-2,0
STARLINK-37489,2026-117P,2026-07-04T12:05:42.526752,15.49107660,.00006569,53.1601,158.2881,59.6062,300.5012,0,U,69251,999,569,-.19847431E-2,-.108538E-2,0
STARLINK-37434,2026-117Q,2026-07-04T22:22:39.740160,15.49408314,.00015147,53.1606,156.7038,313.7989,46.2895,0,U,69252,999,575,.17085122E-2,.96085E-3,0
STARLINK-37368,2026-117R,2026-07-05T06:00:04.999968,15.35030187,.00010946,53.1604,154.2023,76.4475,20.2988,0,U,69253,999,609,-.65209399E-1,-.1999141E-1,0
STARLINK-37517,2026-117S,2026-07-05T06:00:04.999968,15.33520314,.00016475,53.1604,154.4614,85.4639,241.8835,0,U,69254,999,609,.11552496E-2,.37778E-3,0
STARLINK-37378,2026-117T,2026-07-05T06:00:04.999968,15.33502648,.00016236,53.1609,154.3781,70.5968,298.1391,0,U,69255,999,609,.11602807E-2,.37924E-3,0
STARLINK-37396,2026-117U,2026-07-05T06:00:04.999968,15.33502109,.00015541,53.1608,154.4281,80.4670,261.9086,0,U,69256,999,609,.10865749E-2,.35479E-3,0
STARLINK-37508,2026-117V,2026-07-05T06:00:04.999968,15.35354306,.00016462,53.1603,154.5182,83.8844,214.3254,0,U,69257,999,609,.11180005E-2,.38761E-3,0
STARLINK-37276,2026-117W,2026-07-05T06:00:04.999968,15.35331499,.00015411,53.1600,155.2602,80.8635,206.4613,0,U,69258,999,605,.1110545E-2,.3847E-3,0
STARLINK-37518,2026-117X,2026-07-05T06:00:04.999968,15.35360770,.00009324,53.1602,155.2216,100.5840,206.6479,0,U,69259,999,604,.15337061E-2,.5343E-3,0
STARLINK-37478,2026-117Y,2026-07-05T06:49:25.826880,15.49302899,.00010779,53.1595,155.3428,106.6080,253.5047,0,U,69260,999,580,.1455947E-2,.81355E-3,0
STARLINK-37506,2026-117Z,2026-07-05T06:00:04.999968,15.42273663,.00009404,53.1609,155.1338,89.2596,264.1286,0,U,69261,999,604,-.66803867E-1,-.2571098E-1,0
STARLINK-37503,2026-117AA,2026-07-05T06:00:04.999968,15.35297093,.00016385,53.1613,155.0678,92.0349,289.9610,0,U,69262,999,604,.16680125E-2,.5806E-3,0
STARLINK-37502,2026-117AB,2026-07-02T15:47:33.435168,15.49209951,.00045306,53.1599,167.3776,42.0068,318.1288,0,U,69263,999,540,.11711635E-2,.65022E-3,0
STARLINK-37486,2026-117AC,2026-07-05T06:00:04.999968,15.35309488,.00012508,53.1611,155.0457,102.4981,290.3025,0,U,69264,999,604,.11923711E-2,.41319E-3,0
STARLINK-37435,2026-117AD,2026-07-05T06:00:04.999968,15.33468334,.00007029,53.1603,154.7878,103.3641,55.9602,0,U,69265,999,604,.16623764E-2,.54558E-3,0
